{"type":"FeatureCollection","features":[{"type":"Feature","geometry":{"type":"MultiPolygon","coordinates":[[[[-116.62281799787442,34.16693925759765],[-116.62320228996643,34.16706620584823],[-116.62379770501485,34.16720560736422],[-116.62449887333179,34.16722806669056],[-116.6254054531165,34.16717458260874],[-116.62567355171979,34.16704469191754],[-116.62579840496787,34.16702020267308],[-116.62592154333207,34.16693280824055],[-116.62681293619859,34.16667141672887],[-116.62769318276911,34.166622773232476],[-116.62857413631372,34.16647831202849],[-116.62910434984218,34.166516543082295],[-116.63007246691883,34.166879736487004],[-116.63046889794528,34.16692133363125],[-116.63180685501766,34.16685349381817],[-116.63219876392499,34.166746977055396],[-116.63237240916773,34.166620480978054],[-116.6325657418882,34.16641423654718],[-116.63271338090347,34.1661660551822],[-116.63294175241165,34.16592561285506],[-116.63324115820087,34.165753223173404],[-116.63391772345881,34.165509671261205],[-116.63468900887692,34.16511304414782],[-116.6351936743187,34.16496305847571],[-116.63655667013299,34.16496721271083],[-116.63736432025212,34.16502148458914],[-116.63824381133944,34.16503756486369],[-116.63933183015034,34.16479286919442],[-116.63979487754332,34.164751559397715],[-116.64055009120267,34.16476283064066],[-116.64123583903942,34.164915796510826],[-116.64199779096174,34.16492020941254],[-116.64285155609596,34.16482359973958],[-116.64358642830403,34.1648505982208],[-116.64470190322326,34.1651872843071],[-116.6458113603284,34.165283075950455],[-116.64655824031684,34.165458383979626],[-116.6474369328019,34.16559697648663],[-116.64813189825178,34.16558951319003],[-116.64992873992414,34.16525000050773],[-116.65145478175909,34.16480949137032],[-116.652017506216,34.16475302219167],[-116.65240616501862,34.164929606060554],[-116.65305003519347,34.16543020684491],[-116.65354839715691,34.165938932418655],[-116.65392249606539,34.16617906476134],[-116.65415404581302,34.166197700201295],[-116.65513549838006,34.166033436594304],[-116.65619451418367,34.165991510483366],[-116.65671644075364,34.16612125562613],[-116.65710304151595,34.166370762382805],[-116.65760373640416,34.16675326662318],[-116.65806369988077,34.16700858536784],[-116.65873055524881,34.167184284489],[-116.65986394167645,34.16707657742648],[-116.6613601297996,34.167035858160034],[-116.66210652200289,34.16711972790545],[-116.66280137067179,34.16713922904564],[-116.66387727749768,34.166722579147006],[-116.66534841699743,34.166431916827136],[-116.66578605194934,34.166405824160584],[-116.66709636875873,34.1664207550684],[-116.66765931599785,34.166302771242215],[-116.66818289726456,34.166241414533125],[-116.668943134303,34.166382859931616],[-116.6697600882735,34.16672325478151],[-116.67036041441159,34.166932736143316],[-116.6709297351976,34.16694485813955],[-116.67136146013327,34.16674551355272],[-116.67202844935026,34.16618775589935],[-116.67339000157189,34.165663798270515],[-116.67418481566393,34.165580735026424],[-116.67573837199777,34.16507954496508],[-116.67689112700127,34.164873023239174],[-116.6782131829948,34.16440761034821],[-116.67888215659026,34.16432422922508],[-116.6806709709172,34.164758815390655],[-116.68215897898138,34.16486245962173],[-116.68348990494002,34.16485440906214],[-116.68403161420916,34.16479688964587],[-116.6847370441338,34.164467632694226],[-116.68623777593568,34.163849205444926],[-116.68657564668707,34.163791383564806],[-116.68721752619523,34.16377932132291],[-116.68787409675154,34.16368397172273],[-116.68853087931028,34.163519007495246],[-116.68902197300474,34.16330159257254],[-116.68991399738694,34.16281678706984],[-116.69080217428476,34.162625271664986],[-116.6916175481187,34.1624874428614],[-116.69322390922157,34.1612488147086],[-116.69361527015653,34.16104737090916],[-116.69425459844929,34.16083677110694],[-116.6944427577721,34.16033714880855],[-116.69470558775625,34.159844201656014],[-116.69537785457551,34.159446273104294],[-116.69588100366109,34.159449869365346],[-116.69623243807497,34.15932674156594],[-116.6973767767626,34.159366110190724],[-116.69829717083975,34.159318933549784],[-116.69888758586531,34.15908518853759],[-116.70043366282607,34.158577249749506],[-116.70150206153282,34.15827530957855],[-116.70229719991669,34.15813315482287],[-116.70382409335454,34.15836673373103],[-116.70440679364845,34.15826013341243],[-116.70536267297595,34.15793151106255],[-116.70615899893262,34.15772820245686],[-116.70695356239466,34.157623767460976],[-116.70781295816911,34.15770468653063],[-116.70846852081569,34.157647804499625],[-116.7095534566085,34.15700550862869],[-116.7102362220385,34.15682482268318],[-116.71071303162165,34.1567602321604],[-116.71108566358129,34.15654268609917],[-116.71142625353306,34.15618272497792],[-116.71176829516233,34.15563340020666],[-116.71197261966861,34.155052195948095],[-116.71189982918116,34.15432573480646],[-116.71101407144639,34.15344700361756],[-116.70982930587606,34.15201396320494],[-116.70960423387993,34.151296629513006],[-116.70967624193477,34.15063578771531],[-116.70985870953194,34.150269571582136],[-116.71191464599346,34.14816596418886],[-116.71257211935665,34.14720746134086],[-116.71333079242818,34.1459846751232],[-116.71390477457221,34.14543385509376],[-116.71452167552559,34.145211785632775],[-116.715554970766,34.14507922632353],[-116.71659343670918,34.14507476926406],[-116.71748921335428,34.14484888191095],[-116.71866897441019,34.144610591439964],[-116.7193245271753,34.1445265907903],[-116.72109182505456,34.1444044032821],[-116.72189427213156,34.1442614794787],[-116.72289235431111,34.14426566818837],[-116.7246820157494,34.14472299761297],[-116.7255079915003,34.14482171124181],[-116.72636825235236,34.14477258380094],[-116.72720324179885,34.14462971266301],[-116.72848593720991,34.14468007805841],[-116.72950335293102,34.14489671865332],[-116.73031131476554,34.144751357115425],[-116.73123806981323,34.144693109534565],[-116.73291176413821,34.14468530462628],[-116.73395352959342,34.14510018230626],[-116.73435488428593,34.145365072408694],[-116.73482463850087,34.14539488144263],[-116.73604093493766,34.14463321216087],[-116.73745655585793,34.14393783522706],[-116.73836998529671,34.143914380143244],[-116.73870646006615,34.14396093418101],[-116.7383402034501,34.14358516741444],[-116.73801897758258,34.143170103116105],[-116.73791154895608,34.14261966696102],[-116.73809500470003,34.14198821138632],[-116.738471917132,34.14127012563974],[-116.73979564039867,34.138957624972896],[-116.74002065669927,34.138238850992074],[-116.74010467343282,34.13760087910951],[-116.74009254437989,34.13668055598116],[-116.73995996202709,34.13600848314401],[-116.73990623289164,34.13528257500742],[-116.74012498883299,34.134559109907066],[-116.7406912688218,34.13398284957631],[-116.74136772268861,34.13378404285092],[-116.74253941058505,34.133759770747766],[-116.7431482338874,34.13367965409437],[-116.74389130322244,34.133525861315114],[-116.74498916487387,34.133441955231966],[-116.74588874768087,34.13352092404715],[-116.74670864004068,34.1335017802339],[-116.74722553335012,34.133357008816816],[-116.74823207137146,34.133259470757366],[-116.74897962779131,34.133358316005655],[-116.74950785873796,34.13336605950067],[-116.74991427274216,34.13300616989337],[-116.75033651596,34.132418424882005],[-116.75049367711728,34.13182142714318],[-116.75096929553435,34.13088429028049],[-116.75168635504863,34.13062879465697],[-116.75222955552115,34.13057747801373],[-116.75302398872752,34.1305505094738],[-116.75366626529103,34.13057134488012],[-116.75449271804739,34.130548942728375],[-116.75541209074004,34.130698857157476],[-116.75637617887264,34.13091571057181],[-116.75708350783582,34.13099531305237],[-116.75788597557406,34.13092964316772],[-116.75856713122306,34.13092844450502],[-116.75931456457374,34.13098916210296],[-116.76010235294194,34.13098365807367],[-116.76073279869318,34.130871645571176],[-116.76136218533067,34.13071111968781],[-116.76182846306541,34.13042757675407],[-116.76233622230507,34.13002542207751],[-116.7630579341942,34.12922600732357],[-116.76349117099448,34.12890459653279],[-116.76403098212344,34.12862144165141],[-116.76467404561113,34.12849877308172],[-116.76522167387971,34.128578583817685],[-116.76609866495562,34.1289929984903],[-116.7668364944176,34.12941163255218],[-116.76727729593088,34.129699228529056],[-116.76754629464608,34.12982777497818],[-116.76783944546601,34.12974758767399],[-116.76811358793455,34.12938669664504],[-116.76819138832634,34.128886356641615],[-116.76808335513365,34.12842865967948],[-116.76810539529913,34.12818040684572],[-116.76824068697083,34.127840662728936],[-116.7683111795678,34.1274441189843],[-116.76798466801316,34.127023349164645],[-116.76730706250615,34.12661629416261],[-116.7670330125641,34.12613161942203],[-116.76684229753434,34.12522680638473],[-116.76685340879607,34.12489791275314],[-116.76707804960087,34.124156521657525],[-116.76729134288699,34.12374147943207],[-116.76738624810011,34.12333660687012],[-116.7674061493769,34.122743582319075],[-116.7671786034205,34.12223288392126],[-116.76650809280761,34.12114956411782],[-116.76582269082223,34.118851009011514],[-116.7658167870942,34.11820143931615],[-116.76590010044691,34.11772379937028],[-116.76615192337388,34.11708802797577],[-116.76745713146424,34.11576030656761],[-116.76780486392082,34.115265080844786],[-116.76852029478952,34.11461426909416],[-116.76947510871513,34.11391978755484],[-116.76984033765851,34.1135513246283],[-116.77019932959885,34.11316126178683],[-116.7703690950179,34.112640970669275],[-116.7703158869053,34.11206136725917],[-116.77013480810356,34.1115584695879],[-116.77000615318522,34.11106663982429],[-116.77003385722858,34.11039011569824],[-116.77018925499296,34.10993086082195],[-116.77020531237865,34.10951388041281],[-116.76990853955151,34.109138202233154],[-116.76905959747201,34.108647929267995],[-116.76848969367937,34.10805620449901],[-116.7683308634523,34.1077470066195],[-116.76803512099278,34.107371351089206],[-116.76745173258938,34.10683617292309],[-116.76682360718654,34.10617711149108],[-116.76675775887958,34.10585702037427],[-116.76696455015967,34.10549195873437],[-116.76858039747192,34.103567026179064],[-116.76914043237286,34.10270265506633],[-116.76940680890574,34.10234688895751],[-116.76979944005855,34.10221004634268],[-116.77056253733285,34.1024363161651],[-116.77188979816513,34.10315407126133],[-116.77330357933569,34.10385340389858],[-116.77411869714979,34.104415974272456],[-116.77465420714516,34.10501205499388],[-116.77510467992077,34.10529257699183],[-116.77560523826509,34.10538425855538],[-116.77619427886823,34.10537584455448],[-116.77718313624818,34.10525387566281],[-116.77841186536851,34.10533288419405],[-116.77957542710489,34.10563017134576],[-116.78043121165187,34.10612788720875],[-116.78117000141292,34.106868354875225],[-116.7816078052481,34.10741033929791],[-116.7819280789014,34.10790897814461],[-116.78233434737854,34.10842667354962],[-116.78263874780076,34.10872474047117],[-116.7830045435811,34.10895520341342],[-116.78344588408353,34.109037002868924],[-116.78420271381208,34.10891236610681],[-116.78531481196414,34.10855309759669],[-116.78636951405777,34.10843769793276],[-116.78674569436278,34.108438444692986],[-116.78716515459986,34.10860811602987],[-116.78773665110553,34.109139188484],[-116.78825676757019,34.10984186994871],[-116.78888997204766,34.11027292382582],[-116.78966763370765,34.110702408393216],[-116.79015538117768,34.111085103713066],[-116.79056121127698,34.11158189646279],[-116.79087422654277,34.11215245615431],[-116.79145185315194,34.11299231209011],[-116.79208923120223,34.11348011668826],[-116.79244407562092,34.11358932155866],[-116.79312628140049,34.11358344155171],[-116.79469504890703,34.11320536725514],[-116.79519310364662,34.11311847420968],[-116.79600810647635,34.11308079836538],[-116.79724443983558,34.11343490542008],[-116.79821979014689,34.11390596148518],[-116.79867547045623,34.11422007078619],[-116.79932539527607,34.114775830318955],[-116.79983493048503,34.115107794006725],[-116.80041763257555,34.115424336026855],[-116.80117856311335,34.11567569714058],[-116.80201049738956,34.11575598703773],[-116.80312566328831,34.1155888572061],[-116.80414239269655,34.115098768885986],[-116.80504747229477,34.11452803049233],[-116.8056863217855,34.11431228634397],[-116.80634102204938,34.11434952432474],[-116.80813331644976,34.11466131302721],[-116.80937131887879,34.11459057680336],[-116.81093842001047,34.11436105441814],[-116.81125436108914,34.11413370386006],[-116.81165300915771,34.1137217971289],[-116.81208884029255,34.11310263915634],[-116.8125341899761,34.11271740265425],[-116.81329784330755,34.11257444534855],[-116.81387346308037,34.112588853991],[-116.81466466684329,34.11238464864674],[-116.81616397122214,34.111566057403],[-116.81694485513906,34.111197227218014],[-116.8177633030079,34.110989252843964],[-116.81853354188871,34.110850390012814],[-116.8193610798099,34.11082022666382],[-116.82029278726976,34.11090486102952],[-116.82099499134421,34.11113359399362],[-116.82188759064817,34.1114823481904],[-116.82224413018781,34.111516534290445],[-116.8227301169599,34.111357875683105],[-116.82333498587835,34.11093195037528],[-116.82389918896223,34.11020274101542],[-116.82443105628913,34.10943457678795],[-116.8249052418933,34.108566717025624],[-116.82537751049269,34.10783042721878],[-116.8261343671707,34.10675115589265],[-116.82650698026572,34.10633480766375],[-116.82697233902392,34.1058959572143],[-116.82755831816858,34.10540719324916],[-116.82801748663617,34.104936597883835],[-116.82900977378388,34.10334411925978],[-116.82956922298325,34.10219083593312],[-116.83012728967537,34.101796829664124],[-116.83059138899559,34.10176533458232],[-116.83025550531757,34.10172588258897],[-116.82949968439709,34.10156056233597],[-116.82875812423174,34.10098194002286],[-116.82860125502692,34.10043874061787],[-116.82785929780624,34.09987210166421],[-116.8272678964305,34.0995415428557],[-116.82673563564151,34.09930892607279],[-116.82606830686134,34.09930277728176],[-116.82495163448786,34.099030554099876],[-116.82439084051049,34.09874165991018],[-116.82196855041484,34.09879109379754],[-116.82106274587622,34.09819722096284],[-116.82023497349473,34.096802776173284],[-116.81994910891004,34.0965281287959],[-116.82134052382668,34.09480443384087],[-116.82103063469806,34.09075494931079],[-116.82020782640681,34.090654406435206],[-116.82019997423293,34.090637855969455],[-116.81948029073968,34.090565172106054],[-116.81905901321078,34.09041253512016],[-116.81876060724645,34.09033985180721],[-116.818225233795,34.0902889727071],[-116.81769863598556,34.0902889727071],[-116.81720714523574,34.09015814102005],[-116.8167770902682,34.090041846595966],[-116.8161363974345,34.089911014527],[-116.81577655478957,34.089816524904236],[-116.81535527726066,34.08978018225577],[-116.81474968968999,34.08969296162126],[-116.81423186931917,34.08957666581426],[-116.81388080411288,34.08942402779005],[-116.8134068655454,34.08929319476629],[-116.81304702379879,34.089242315781064],[-116.81281883195365,34.08919870445398],[-116.81252920342799,34.089205972142125],[-116.81230101068455,34.089147825412006],[-116.81190606277663,34.08911148247648],[-116.81167787093152,34.08903879730252],[-116.8113794658655,34.08887162138889],[-116.81084409151575,34.08853726857122],[-116.81006297134188,34.08805027318814],[-116.80965924779196,34.087759529217664],[-116.80950126826947,34.08749058924464],[-116.80937839490828,34.08709081273408],[-116.80927307552605,34.08651658438001],[-116.80909879068282,34.08595020338154],[-116.8089561840298,34.085135257888574],[-116.80879931482498,34.08481636462102],[-116.80836908378764,34.08471391974121],[-116.80771961261702,34.08467757490239],[-116.80655232107556,34.084641230047986],[-116.80610471302738,34.08459034752316],[-116.80559566919689,34.08457581060988],[-116.80534114773081,34.084481314288766],[-116.80507724964981,34.084166761277196],[-116.80462090548548,34.08397778621652],[-116.8042786464639,34.08382424157669],[-116.80350856388996,34.08322187654844],[-116.80298091505165,34.08293840877625],[-116.80268143829548,34.082713996705934],[-116.80213636034404,34.08234448201057],[-116.80196839964039,34.08205256745302],[-116.8016831845377,34.0818045289422],[-116.80138370688323,34.081591924457605],[-116.80115553390274,34.081391132289816],[-116.80097014408598,34.08114309258569],[-116.80085605804489,34.08076512631503],[-116.80075623275894,34.08044621584576],[-116.80067066822814,34.08010368109618],[-116.80031414845143,34.079938318612285],[-116.79980075946993,34.07992650704709],[-116.79935867516241,34.07993831935634],[-116.79895937491693,34.07997375329799],[-116.7986741580176,34.07999737641361],[-116.79820355219982,34.07997375404204],[-116.79790407634198,34.07985563762123],[-116.79787254367886,34.07969801859734],[-116.7978440221686,34.079398789929996],[-116.79783451529795,34.079170430263886],[-116.79772042835856,34.0788475770468],[-116.79753028555564,34.078587718885075],[-116.79721654804432,34.07837510632477],[-116.79695985355357,34.078154619680994],[-116.79680773913158,34.07794987960289],[-116.79681724600223,34.07765064624726],[-116.79683626064184,34.077312037005235],[-116.79681805179104,34.077102611773896],[-116.79686478125379,34.0762332053987],[-116.79682675287287,34.07590246499387],[-116.79671266593348,34.07567409738894],[-116.79669365219216,34.07535910539853],[-116.79676970985233,34.075146484733516],[-116.79681724600223,34.07496536339113],[-116.79682675287287,34.07464249340083],[-116.79688379589341,34.074500745646965],[-116.79713603384205,34.07430301197071],[-116.79746878599295,34.07394863997708],[-116.79787284102122,34.073594265756846],[-116.79802733328378,34.07344660964224],[-116.7983957368734,34.07327926603223],[-116.79877602427588,34.07305285874503],[-116.79913254315427,34.07274770143377],[-116.79942964296818,34.07245238599595],[-116.79982181418356,34.072019254676135],[-116.80015456543615,34.07160581026154],[-116.80040412999848,34.07128095854692],[-116.80048731848538,34.07102501427781],[-116.80041601381137,34.07080844561786],[-116.800059494933,34.07055249992116],[-116.79956036670663,34.07013904760419],[-116.79913254315427,34.069824034287535],[-116.79893720000415,34.06969679859343],[-116.79879459335113,34.06956291765714],[-116.79874705630291,34.06928728003186],[-116.79879943886377,34.06913876958985],[-116.79894670687479,34.06881475523915],[-116.79897522838507,34.06848398735796],[-116.7989086793922,34.06802720930176],[-116.79894670777313,34.06762555794341],[-116.79897522928339,34.06719240194606],[-116.79903227140564,34.06685375164296],[-116.79907980845383,34.06642846782866],[-116.79912440441778,34.06622596164261],[-116.79903227230393,34.065940175490546],[-116.79874705630291,34.06582204098898],[-116.79810056753902,34.06529436697354],[-116.79744457100614,34.06442802967422],[-116.79693118382129,34.063837339769314],[-116.79667448933051,34.06343566929413],[-116.7962371589075,34.06297098831806],[-116.79579032071548,34.062624444662205],[-116.79534348252349,34.06236453599036],[-116.79488713835916,34.06208099916016],[-116.79484969118822,34.06207219536362],[-116.79384608526797,34.061221105037475],[-116.7943277538385,34.0602843076591],[-116.79936139076952,34.05850277735288],[-116.7999472944557,34.05793984681821],[-116.80022941306564,34.0573583334925],[-116.80051275068938,34.05708610867901],[-116.80128165916526,34.05628581872016],[-116.80272941192491,34.05533662486859],[-116.80245719634267,34.053469444446286],[-116.80188538093512,34.051493592285986],[-116.80190737079494,34.050416665561656],[-116.80188543124076,34.04934174817689],[-116.80217390722795,34.04874710802842],[-116.80299137144154,34.04876379172361],[-116.80356274577633,34.048469444414415],[-116.80523370203632,34.04792721071128],[-116.80550719053132,34.046247222968745],[-116.80703218762564,34.04471666875222],[-116.80746736838019,34.044417111104536],[-116.80760997593153,34.04429894511557],[-116.80793084337124,34.044033072341016],[-116.80807345182089,34.043737656838616],[-116.80832301548492,34.04341269829963],[-116.80846562303628,34.04305819787324],[-116.80900040270133,34.04243781744485],[-116.80932127014104,34.04190605939259],[-116.8094995300294,34.041433381942234],[-116.8098203974691,34.04104932966718],[-116.81010561347011,34.040842531797004],[-116.81028387246015,34.04048801988295],[-116.81042648090983,34.04022213516108],[-116.81071169601253,34.03998579281719],[-116.81138908322892,34.03957219064196],[-116.811923862894,34.039276760345366],[-116.81245864166073,34.03895178471399],[-116.81302907366276,34.03859726489709],[-116.81345689721515,34.03830183120478],[-116.8140640460578,34.03799664553827],[-116.81203559624733,34.03732816007698],[-116.81098630740165,34.03693175428807],[-116.80963975884185,34.03655124515155],[-116.80856085523618,34.036594843382346],[-116.80766636138527,34.03674226221397],[-116.80688524839798,34.03679053378037],[-116.80594066448684,34.03672794339335],[-116.80523653262777,34.03658922304034],[-116.80441492897737,34.03635784477639],[-116.80361000794008,34.03632509036878],[-116.80257818144514,34.03667776608789],[-116.80199556828785,34.037016843648885],[-116.80123414367662,34.0373562473946],[-116.80046006988785,34.03742271345506],[-116.79966835318696,34.037389739113515],[-116.79839710410926,34.03744136163949],[-116.79679969651484,34.037369346022246],[-116.79576722862282,34.03709419625339],[-116.79494471677562,34.03693573019871],[-116.79397243600765,34.03699657031837],[-116.79311094536196,34.03710590584939],[-116.79197038049686,34.036966360560605],[-116.79088995963664,34.036453033479624],[-116.78880350021842,34.03546171088941],[-116.7880908532288,34.03537507379413],[-116.786456002955,34.0355002996951],[-116.78497592970976,34.03549992748219],[-116.78351927105234,34.0349995751342],[-116.78260256006784,34.03425373177439],[-116.78237839537017,34.03395746853784],[-116.78174821641858,34.033124591744055],[-116.78130293500696,34.032593332898614],[-116.78072899149046,34.03226138590568],[-116.77953289007954,34.032232049195585],[-116.77871199340326,34.032567085776975],[-116.77785854088275,34.03263763369171],[-116.77699165765041,34.032987422139016],[-116.77596914219342,34.033831447530424],[-116.77559308944917,34.033968633637336],[-116.77551026118674,34.03399884967375],[-116.77449243673217,34.03395647173364],[-116.77437524162187,34.03397063766761],[-116.77412220057938,34.03400122592268],[-116.77354987762368,34.034135524081236],[-116.77284082389518,34.03425156620807],[-116.77208007751197,34.03425704823972],[-116.77139089541589,34.03433418226333],[-116.77085213801078,34.034525232606526],[-116.77021357059104,34.03469766276884],[-116.76948479614714,34.03479057388432],[-116.76844553249998,34.03487466264404],[-116.76707656109244,34.035518497924656],[-116.76564512802655,34.035991976580625],[-116.76500166928012,34.03612618449046],[-116.76468764071464,34.035955735904764],[-116.76437212903068,34.035565376623566],[-116.76387229742345,34.03422771594192],[-116.76373166616571,34.03398815283032],[-116.76351806385912,34.03348530438034],[-116.76328370238468,34.033040306948884],[-116.76302344068392,34.03283896646471],[-116.7623474449579,34.03261931349864],[-116.76165283613918,34.03233344680417],[-116.76068811559261,34.03199591164869],[-116.75949609702468,34.031817644655376],[-116.75856181858646,34.03132451123103],[-116.75806370455807,34.03083872431545],[-116.75790971535206,34.03060600893554],[-116.75766358594737,34.03007750599365],[-116.75766303258513,34.02980236830918],[-116.75778917042406,34.029162980360425],[-116.75783895775207,34.02868434525387],[-116.75760683398096,34.028136507097564],[-116.75694918275134,34.027026295723054],[-116.7567045077191,34.02647104946112],[-116.75566630767725,34.0252623117331],[-116.7555653945315,34.02474357860521],[-116.75556038283052,34.02436288674669],[-116.75561192187332,34.02379240340874],[-116.75523734236616,34.02310321518234],[-116.7550145475993,34.02289120127098],[-116.75473606896288,33.97612561681271],[-116.71989678006241,33.97610068792364],[-116.7198070662133,33.947081004409235],[-116.73630591908184,33.94719692999668],[-116.7367169198839,33.93286992773984],[-116.71973253658746,33.932632128433156],[-116.71961928418295,33.886275341216184],[-116.7543946426796,33.886239427466705],[-116.7541190503302,33.828733030627085],[-116.74469102750581,33.82879109741856],[-116.71946770875012,33.82894644620809],[-116.71946610346069,33.83129440628704],[-116.71519668759639,33.83126533755499],[-116.71130395150038,33.828741331002476],[-116.7097616645318,33.82578434273458],[-116.70788367175163,33.82421776442726],[-116.7057278291558,33.82107851920178],[-116.70244052791688,33.819187553720866],[-116.69399359204519,33.81595614634653],[-116.68644408392211,33.81787601774079],[-116.68467901655971,33.81796431824839],[-116.67932287276358,33.814685863527416],[-116.67854585339902,33.813175220979375],[-116.68050906665523,33.80959481127301],[-116.67921094717076,33.806213888141855],[-116.67978390793033,33.8027314954996],[-116.68170001982124,33.80081352441753],[-116.68525764029883,33.79841621399229],[-116.68588328814812,33.79689158193964],[-116.6869036799878,33.79607323163909],[-116.68717314043704,33.79479816025018],[-116.68638918697678,33.7913104653839],[-116.68578407910647,33.790645957825205],[-116.68480831736676,33.78995764434508],[-116.67893980777022,33.788299178430236],[-116.67639927423038,33.78568113171523],[-116.67353427100653,33.78155200802282],[-116.67416036442023,33.77364356203669],[-116.67553720327302,33.77210487300782],[-116.67556979325322,33.77143360259027],[-116.67305522012676,33.76481803729982],[-116.67310772575682,33.76256573674122],[-116.67186357166472,33.75828010122749],[-116.67203554424438,33.75598786403881],[-116.66954017440376,33.75545356448768],[-116.66277334053997,33.75755445149095],[-116.65935563266788,33.75947787103664],[-116.65513493333974,33.76000483026026],[-116.65343674016036,33.75976975027237],[-116.6499608708652,33.75723983033347],[-116.64924408264211,33.755886853586766],[-116.64910806153841,33.753058500661126],[-116.64841647285567,33.75125508227663],[-116.64900605424465,33.74531334190701],[-116.64840743670223,33.74361811874386],[-116.64701219675915,33.74189397363969],[-116.64704258227364,33.73916073099139],[-116.64566664532936,33.73754089833184],[-116.64401215788348,33.73654106930112],[-116.64264400663778,33.73448546805186],[-116.64141791946265,33.73015557047961],[-116.63105128382881,33.72723387479416],[-116.62951665769297,33.72611357657098],[-116.62822033304245,33.7228986404824],[-116.62841205418533,33.721025412391455],[-116.62605175682744,33.717478445148046],[-116.62408145676196,33.71610143537722],[-116.62379645096672,33.71248591092247],[-116.62222471901974,33.708472187929296],[-116.62237751975462,33.70248393756188],[-116.6213074950972,33.70021660160823],[-116.61579008933454,33.698185921553744],[-116.61190310515131,33.695794817466734],[-116.61095389401814,33.69410146529366],[-116.6109978737378,33.690574312073146],[-116.60760837835554,33.68864714509242],[-116.60598368533269,33.68648228611914],[-116.60247558268853,33.68456041679903],[-116.60065770337053,33.68290405709994],[-116.6003206581709,33.68118128641517],[-116.59814902319236,33.679200942048276],[-116.59363927205692,33.67918385407572],[-116.5916178605467,33.677603274064474],[-116.58941240579436,33.67761444099372],[-116.58606729078039,33.67688815698265],[-116.58352199706783,33.67299855713208],[-116.58031480578933,33.67143273928209],[-116.57675185470886,33.66721975936853],[-116.57331154432592,33.66605701246979],[-116.57278339422766,33.66550321719064],[-116.57099203048193,33.66123982444584],[-116.5725654377869,33.65318437421266],[-116.56888225349385,33.652174851597515],[-116.56617325799044,33.65092739587143],[-116.56569244731104,33.65013216533979],[-116.5673947574694,33.64767601048148],[-116.56729800262508,33.64492951504943],[-116.57042901676749,33.64318586806056],[-116.57190051918663,33.64092542068635],[-116.57042568761106,33.634989429169295],[-116.5671727083042,33.63190721147876],[-116.56528477746207,33.63094009986088],[-116.56399163733921,33.62885836661421],[-116.56372644568418,33.62728897651377],[-116.56444927328093,33.624616925292116],[-116.56361258781519,33.6216828901325],[-116.56403516700294,33.618421275575216],[-116.5594210549877,33.61346443416705],[-116.5601483534996,33.61108582232723],[-116.5598646969739,33.60649685376492],[-116.56232598832592,33.60349035176233],[-116.5612618763797,33.59929900332193],[-116.56122109106917,33.59686005362706],[-116.55977177613924,33.595187742565464],[-116.55934219817709,33.593344481542076],[-116.56003032115945,33.590839963847344],[-116.56373937333943,33.58929482144142],[-116.56703863384973,33.586384140916735],[-116.5695712217909,33.58333531864555],[-116.56818227454639,33.58202058042423],[-116.56800591728978,33.5809600831629],[-116.56814423628398,33.57829100928189],[-116.56961317401297,33.57426416638996],[-116.56837924903702,33.57267685516666],[-116.56842126144625,33.57193097352473],[-116.57110490828894,33.56778919294943],[-116.5703915956477,33.5623817252523],[-116.57059611598675,33.55964239353736],[-116.57410169436498,33.55328898688064],[-116.57255990326642,33.55278080948055],[-116.5694372802871,33.553159960994755],[-116.56902233857588,33.55171789276243],[-116.5697660412232,33.550941559870466],[-116.56672167048826,33.550566694400075],[-116.56514634797509,33.54870539946824],[-116.56368747317389,33.547933761415756],[-116.5610441984167,33.54862180585963],[-116.5595665865553,33.549483833738655],[-116.55723323685932,33.551955317562225],[-116.55377209364663,33.55196721199298],[-116.54683995809245,33.55327253122292],[-116.5457190456708,33.5530295364694],[-116.53961049545059,33.54815465238682],[-116.53475640389709,33.54278937006806],[-116.52953966875161,33.53840061330897],[-116.52842679535344,33.537847520565435],[-116.52129526255227,33.53680137763536],[-116.51669759689327,33.53565188021927],[-116.51086584366321,33.535825363498454],[-116.50679115650136,33.5385766922584],[-116.5012449741069,33.53971217688804],[-116.49944941702542,33.540489706826875],[-116.49584625914945,33.54404078375797],[-116.49404926566181,33.5442265275386],[-116.4912981616295,33.543236846290306],[-116.48858715300153,33.54396972655809],[-116.48553294122263,33.545857657265614],[-116.48401729289552,33.548471834129266],[-116.48198223867107,33.54961814468437],[-116.47742181985869,33.54917797854462],[-116.47349610930354,33.54773283191202],[-116.47085099210167,33.546235473547036],[-116.46790321092104,33.545447284414585],[-116.4647868249447,33.542998613623695],[-116.45987825416248,33.54211605981966],[-116.45899648943916,33.540325056848204],[-116.45721434420487,33.538696020302055],[-116.45283358934758,33.538228156508566],[-116.44583358248046,33.538209208350416],[-116.44280307275035,33.5372822942163],[-116.44154181383692,33.53668000881123],[-116.43459009141631,33.52926111942938],[-116.40553352479937,33.517077696517056],[-116.39748454349683,33.5122516342672],[-116.39379585163277,33.508513507995126],[-116.38982728784532,33.50584620006879],[-116.38299379180096,33.50486439322382],[-116.38215617927384,33.50441325479321],[-116.38128807792597,33.503872233735],[-116.3799637680594,33.50130264427408],[-116.37808703651389,33.49915627631886],[-116.37698179250746,33.49842892069576],[-116.37165565244183,33.49688133856919],[-116.36979914736327,33.49554615859501],[-116.36715379390449,33.494506971432706],[-116.36416319811907,33.49246091581326],[-116.36222084913366,33.48971742720885],[-116.35944131162596,33.48873281002465],[-116.35781162486842,33.487650338529015],[-116.35072588458716,33.48140941595467],[-116.34792922608845,33.48099397502998],[-116.34344522875391,33.48146916887796],[-116.33879221339868,33.479957563096754],[-116.33557519365264,33.480207250310606],[-116.33357822080974,33.47950288570438],[-116.33212498203864,33.47778254163537],[-116.33076006472794,33.47416701672887],[-116.32808902124866,33.471442130254815],[-116.32620889317309,33.470248182307145],[-116.32378329098901,33.469598083002474],[-116.32084923786253,33.467370815889026],[-116.31473527708935,33.46586615751539],[-116.31254437863785,33.46326196192328],[-116.31102026818071,33.46039770951597],[-116.30872067807142,33.4592629122576],[-116.30430793420692,33.45607128475412],[-116.30329315234621,33.45602931429518],[-116.30105959559683,33.457819369300616],[-116.29633360020954,33.45731770818719],[-116.29195556095941,33.45971385196763],[-116.29006312776106,33.45964224511671],[-116.28748782762308,33.45807215634538],[-116.2824153664038,33.453853349008654],[-116.2779608113527,33.4518048544516],[-116.27611128977713,33.449340348574324],[-116.27468644315891,33.44546996118451],[-116.2737701193483,33.44420092294574],[-116.27178776568832,33.442889623221056],[-116.26673690535836,33.44222083757255],[-116.26213030954709,33.44289835365128],[-116.2582137357567,33.44279054585682],[-116.25549764895246,33.44184475071224],[-116.24816110173884,33.437142037499434],[-116.24188276543835,33.434677246215976],[-116.2365819147446,33.43365891868881],[-116.23610267252369,33.43226857930293],[-116.23794301780856,33.42953928949159],[-116.23819347349968,33.426836685785894],[-116.23430574820632,33.422751941524396],[-116.22684332546184,33.4120004026017],[-116.22402854794387,33.40537694667203],[-116.22296140777681,33.40052958249054],[-116.22072852296724,33.39716474959142],[-116.21831980192401,33.392029230017826],[-116.21029212596505,33.38363516845369],[-116.207456845299,33.37750031539606],[-116.20497161653962,33.37410464833465],[-116.20026911119875,33.37451649018644],[-116.19529039906081,33.37577805279493],[-116.18904279592284,33.375695361253385],[-116.1876041969959,33.375332431542915],[-116.1829980629187,33.37314014404353],[-116.1823626863149,33.36996886385533],[-116.18122889205208,33.36883446882796],[-116.17772212160945,33.36887168300403],[-116.17515092677235,33.36808785474423],[-116.17114254336327,33.36259423347674],[-116.16994367783623,33.36191076838857],[-116.16703772580847,33.361887450272704],[-116.1645694311905,33.362461181849476],[-116.16442527404529,33.36218406533417],[-116.16527424127757,33.36221636575352],[-116.16552910230685,33.361945119437934],[-116.16568393233594,33.36151951030007],[-116.16579316567787,33.36108529622965],[-116.16583706634582,33.360640959248855],[-116.1656256649117,33.36019133038457],[-116.16483089573543,33.35940131417746],[-116.16474134537968,33.3592944306567],[-116.16459204897275,33.3589778362354],[-116.16452735410262,33.35867568794158],[-116.16471957650542,33.3575157284843],[-116.16468781746686,33.357213007868275],[-116.16427817132424,33.356529199634345],[-116.16413147015015,33.35607527411546],[-116.16411053581076,33.35558978995013],[-116.1641370621628,33.3547534881076],[-116.16408315426258,33.35431118226383],[-116.16394795062583,33.353925368344356],[-116.16358328941767,33.35329105201868],[-116.16344158287656,33.35288695623857],[-116.16335840516946,33.35231357199593],[-116.16341727536329,33.350938568228365],[-116.16376499165021,33.35014027681551],[-116.1641081400039,33.34950633511903],[-116.16417587387464,33.34917369917176],[-116.16420372164845,33.348017166254984],[-116.16409087348582,33.34755084236674],[-116.16386842726529,33.3472616627902],[-116.16354143241702,33.34695425394626],[-116.1627909223365,33.34651702107241],[-116.16238019462232,33.346191520711],[-116.16164467562723,33.34540178717164],[-116.16149988337311,33.34517365842028],[-116.16054937147938,33.34407325700042],[-116.16037451440933,33.343688903096236],[-116.16035555277033,33.34341369898224],[-116.1604058323751,33.343199546591414],[-116.16038655902068,33.34293082180675],[-116.16025008516607,33.34264173945426],[-116.15970759166768,33.34199287886312],[-116.15911840553744,33.34115675109208],[-116.15883277181982,33.341064623324755],[-116.1580601533018,33.34099681879874],[-116.15768458924111,33.34081330278874],[-116.15736080586998,33.340064653933894],[-116.15707266854766,33.33977406561799],[-116.15662552582677,33.339557348149405],[-116.15627456751999,33.33946242165623],[-116.15571706586815,33.33919509774498],[-116.15514905392747,33.33883259967503],[-116.15462165482082,33.33863034923181],[-116.1532804988477,33.33826037319054],[-116.15259750075403,33.33800596304547],[-116.15193918746604,33.33784522719249],[-116.1514122707547,33.33768191909999],[-116.15097116561084,33.33749360268966],[-116.15049266180507,33.33721088752657],[-116.15013793147241,33.33695130261865],[-116.14946613986191,33.336250279233305],[-116.14888571050909,33.33559018689407],[-116.14861946153697,33.33522977601379],[-116.148382901885,33.33474142195393],[-116.14831729163159,33.33309942402129],[-116.14826018932223,33.33250319742917],[-116.14826274682586,33.332144913571206],[-116.14830984908946,33.331809597909675],[-116.14842503646508,33.33142694241356],[-116.1485081755446,33.33070739668086],[-116.14849739216797,33.33033341728994],[-116.14843535361612,33.32992946940855],[-116.14843143965642,33.32956616720369],[-116.1483014866725,33.328699374893695],[-116.14798261169607,33.327560590778276],[-116.14801704861252,33.3272025477977],[-116.1481556748305,33.3268903919938],[-116.148320771705,33.326343234138086],[-116.14825232906351,33.325648414646714],[-116.14805363879066,33.325182793646746],[-116.14778446759891,33.32468231127281],[-116.14715902007391,33.32371279390272],[-116.14686806473657,33.32297593820504],[-116.1465384728588,33.32255211646463],[-116.14592621080553,33.322108470076806],[-116.14546786339815,33.32183459695577],[-116.1448521042035,33.321532764146625],[-116.14458409094016,33.32123097082649],[-116.14423573595107,33.32073058961276],[-116.14334882118622,33.31972783084914],[-116.14281413853922,33.31936724250399],[-116.14238637517397,33.31912770168737],[-116.14181442232415,33.318677506395524],[-116.1415018400463,33.318319151425015],[-116.14125664219455,33.317886347107816],[-116.14056165249016,33.31684469926886],[-116.1406489525661,33.3165045474246],[-116.14102978434765,33.31593881856797],[-116.14112396731531,33.31558817688022],[-116.1411095448634,33.315109937109746],[-116.14093979651238,33.31453325634536],[-116.14066219642834,33.313862017501854],[-116.140380481162,33.3132896855691],[-116.14023691870148,33.3127268793791],[-116.14045345760071,33.31191509646881],[-116.1406775639079,33.311612079209475],[-116.14080731746586,33.3111506255553],[-116.14074085650788,33.310638148569325],[-116.1404097644436,33.31000458077455],[-116.13983464593073,33.30908102563859],[-116.13965844677763,33.308534029249124],[-116.1384185282421,33.307278128074685],[-116.137859330571,33.30625548972714],[-116.13769810902866,33.30566300375182],[-116.13771840466585,33.30455214119744],[-116.13754147787739,33.3040206328514],[-116.13718272848216,33.30339795297183],[-116.13642279776924,33.30261957322036],[-116.13619300692294,33.302085121971025],[-116.13627178288513,33.301547137160604],[-116.13639116449484,33.30120977495096],[-116.1364827980437,33.30098095311452],[-116.1369647603633,33.300301017603736],[-116.13703908158003,33.29993784117277],[-116.13700808700776,33.29962890335853],[-116.1368926202561,33.299242007070646],[-116.13680929163203,33.29863525272431],[-116.13685776113151,33.29829997257495],[-116.13697647169967,33.29795553018582],[-116.13699670175986,33.297669795276136],[-116.13680691468979,33.29741777894447],[-116.13679475239915,33.297135730415135],[-116.13701050617084,33.296893664995096],[-116.13758473445327,33.296455626023544],[-116.13781963491691,33.296240741775144],[-116.13799037500803,33.295951133603026],[-116.13810261231625,33.295656981040445],[-116.13816630017494,33.2952014408269],[-116.13834899414753,33.294713575045904],[-116.13866345570095,33.29418620109763],[-116.1391057600957,33.29376254125123],[-116.13973508744441,33.2935439515637],[-116.14050359347502,33.29347912632628],[-116.14088816763805,33.29327726320357],[-116.14125232848457,33.2928940938944],[-116.14161396955669,33.29256981538607],[-116.14184482131336,33.29223710773575],[-116.14199208213786,33.29187755080481],[-116.14225587511599,33.29155048571539],[-116.14257397035473,33.29137004561014],[-116.14301076628017,33.291239664240635],[-116.14350007771714,33.29102247090567],[-116.14372998624275,33.29077833707038],[-116.14443751912346,33.29024633630315],[-116.1446838695137,33.28981481936728],[-116.14494041488412,33.28923493088742],[-116.14511180715213,33.28868825006783],[-116.14523736467936,33.28811798991748],[-116.14619943609415,33.286873103801184],[-116.14628890649985,33.286396707050145],[-116.1463008487032,33.28590693496325],[-116.14663846792632,33.285009800576425],[-116.14667003113215,33.28450969286611],[-116.14654516890091,33.283962752652556],[-116.14648999168124,33.28327907087598],[-116.14701926287697,33.28152636254419],[-116.1471400997574,33.280338477765795],[-116.14700384509173,33.2789377677761],[-116.1460155159212,33.276489160242],[-116.1459681333832,33.27495771692813],[-116.14600637376655,33.273702090927486],[-116.1458990071238,33.27083743057253],[-116.14568458465537,33.26972215740781],[-116.14569054318063,33.26864856967961],[-116.14612503941898,33.2672518407452],[-116.14645801704702,33.26542917170106],[-116.14635630440065,33.26398079327788],[-116.14626180612433,33.26357654328481],[-116.14592781160339,33.26302694660363],[-116.14522196126721,33.2616219515123],[-116.14509907622791,33.26074374608719],[-116.1451699928297,33.258680686069226],[-116.14510354714308,33.257925475747776],[-116.1447964634531,33.25763840113241],[-116.14424754610211,33.257317084281475],[-116.14379838396847,33.25692354545491],[-116.14354736413537,33.25645523187387],[-116.14337068348529,33.255920038175745],[-116.14329408144606,33.255305864256506],[-116.14310087898127,33.2545923101198],[-116.14269712039705,33.25373213233956],[-116.14217429910505,33.25316334988163],[-116.14146753608055,33.252064476531274],[-116.1411514090506,33.25132751366881],[-116.14106416017862,33.25064269965969],[-116.14090282095697,33.25000613975512],[-116.14065852770874,33.24931678532657],[-116.14038016315835,33.24825768885027],[-116.13965618392145,33.24678906132448],[-116.13905538526953,33.245830944472345],[-116.13865305141333,33.24477040985098],[-116.13826050290552,33.2429959160204],[-116.13808359588,33.24257075607549],[-116.13769462715861,33.24233531095154],[-116.13650600422245,33.24177977445928],[-116.13601389273676,33.241417174244205],[-116.13577999389466,33.24130331576691],[-116.1353071279156,33.240986526448445],[-116.13445781752687,33.24002436166693],[-116.13390887951462,33.23959629987769],[-116.13307264859642,33.2390494337563],[-116.13280438290649,33.23862818040275],[-116.13255388140131,33.238310829148915],[-116.13098866134183,33.237592435020595],[-116.13013498963241,33.23730204774468],[-116.12957104167009,33.23700439685569],[-116.12913857203105,33.23660938104171],[-116.12841287252033,33.23612836267152],[-116.12776363042009,33.23581986776525],[-116.12449319325403,33.2349151611445],[-116.12301920699309,33.23502613513861],[-116.12216917166393,33.2350067435903],[-116.12163166291704,33.235158977047284],[-116.1209478419666,33.2354515106016],[-116.12064412426398,33.23565694869681],[-116.12026042146678,33.23601767259096],[-116.11956879415649,33.23695932348905],[-116.11945449341805,33.23719273338512],[-116.11932502013447,33.23760003272487],[-116.11905758897943,33.23807228600142],[-116.118538407661,33.238308955284246],[-116.11792455019979,33.23818309144287],[-116.11744211087476,33.23797511295115],[-116.11687370996357,33.237811016019734],[-116.11627246664561,33.23775669690879],[-116.11558057792557,33.23755333899125],[-116.11419460590126,33.237350017417285],[-116.11386002837368,33.23739011885325],[-116.1135467921223,33.2373431838218],[-116.11316938921019,33.237092526870065],[-116.11285942911466,33.23673779802471],[-116.11277707246776,33.23647389953773],[-116.1127561695694,33.23602246782663],[-116.11262968947237,33.235728259121785],[-116.11242918100935,33.235528860730554],[-116.11202475138361,33.23539946894249],[-116.11138266705953,33.23540608328865],[-116.1107007164015,33.235460143133366],[-116.10995406548342,33.235458904869624],[-116.10933166234894,33.23550880507979],[-116.10864550218548,33.23544981700531],[-116.10786360496893,33.23511291241503],[-116.10747067018553,33.2350984844806],[-116.10696991421187,33.23542435670409],[-116.10649665297413,33.23605908352188],[-116.10616816332923,33.236194199001396],[-116.10551438653341,33.236138005726104],[-116.10489509875632,33.235835774277525],[-116.1045605050591,33.23540961249258],[-116.10420584479503,33.234872687973834],[-116.10414269951877,33.2348223914239],[-116.10294053268306,33.23482496564861],[-116.10258814874992,33.2349595134907],[-116.1021363258064,33.23500427155827],[-116.101888256939,33.234941496198076],[-116.10178719467292,33.234827424160834],[-115.8742915717633,33.235102737272726],[-115.87419011962834,33.258756283437116],[-115.87419758462836,33.258755753859894],[-115.87423556629689,33.258870889880555],[-115.87418929677155,33.25894809384015],[-115.8741864724683,33.2596064903536],[-115.87423639634021,33.25966486494967],[-115.87455428227152,33.259867876966496],[-115.87476362925857,33.25995147319417],[-115.87505238282517,33.25988782637232],[-115.87514519945529,33.259695354002496],[-115.87536794930641,33.25964311720215],[-115.87538702413313,33.25977364792449],[-115.87534611036352,33.25987714106911],[-115.87548401613269,33.25992820065661],[-115.87540492396349,33.26000461195639],[-115.87517587063402,33.26003601355296],[-115.87463103702432,33.26023195929035],[-115.87420534697074,33.26028409358076],[-115.87418354126554,33.26029007206473],[-115.87417886283953,33.261380036222896],[-115.87445615480144,33.26165989653244],[-115.87469491802081,33.26202427109439],[-115.8750461826531,33.26237329304357],[-115.8753132068713,33.262522222642026],[-115.87569211535981,33.26256404916581],[-115.87608545169012,33.262560398622355],[-115.87643232356065,33.262534158271194],[-115.8768645344849,33.26241451647176],[-115.8773169036041,33.26234613398895],[-115.87768942147768,33.26234284248248],[-115.87770844510045,33.26243555069579],[-115.8774852038709,33.26255551095009],[-115.87688828683935,33.26276592848782],[-115.87642306013348,33.26283638077909],[-115.8755141510172,33.26278783770378],[-115.87501046473906,33.262668053535265],[-115.87424891077045,33.262241900137504],[-115.87355864081457,33.26178674286838],[-115.87328541193267,33.2615698435594],[-115.87311628970741,33.26141546574518],[-115.87292908978533,33.26111789396777],[-115.8726043766579,33.26077463437847],[-115.87237825542954,33.2604773278305],[-115.87218775958868,33.26050900793684],[-115.87206850104822,33.26071321082856],[-115.872090376822,33.26122345794861],[-115.87237880609678,33.26200173147589],[-115.87229772146432,33.26240151495565],[-115.87242717229,33.26257701685638],[-115.87340200786664,33.26261558565912],[-115.87372180810783,33.2627040789398],[-115.873438655537,33.26284074564348],[-115.87267322623622,33.26290412591336],[-115.8724301043911,33.26303858846946],[-115.87220433081075,33.26344040427668],[-115.87215564391899,33.26386226062475],[-115.87208103793631,33.264098017306274],[-115.87189762351485,33.26414181177953],[-115.87179317729506,33.264228298006756],[-115.87184388988783,33.264389059167364],[-115.87201129004269,33.26461562744236],[-115.87220073126139,33.26471458558406],[-115.87283557696087,33.2648281814637],[-115.87307014325124,33.26483960451322],[-115.87346154910199,33.26503543506968],[-115.87376779196887,33.265107342700794],[-115.87378704017048,33.26523449273966],[-115.87357700956547,33.26529340137458],[-115.87328999513724,33.26523884922188],[-115.87330191937433,33.26535839100983],[-115.87369392080812,33.2654585636152],[-115.87376527668609,33.265531739531326],[-115.87365403201626,33.265606969684136],[-115.87351580195528,33.26564621465386],[-115.87310391990594,33.265638451889224],[-115.87275642999448,33.26559212390592],[-115.8724694074814,33.26559599364808],[-115.87202990133876,33.2656487429039],[-115.87199080306434,33.265736496269355],[-115.87207442903077,33.26582536419773],[-115.87229059063759,33.2658812717414],[-115.87253102562168,33.26602556325806],[-115.87251685200313,33.26623446496041],[-115.87244865460171,33.26643066043196],[-115.8724808394417,33.26658001650043],[-115.87267698658401,33.266646761263],[-115.87272192929765,33.26675057975473],[-115.87253181164756,33.26679412954016],[-115.87230921900164,33.266804029844494],[-115.87224897438541,33.26696975330659],[-115.87225623636618,33.26772331414225],[-115.87209207373958,33.267764427638696],[-115.87169894132683,33.267789524002],[-115.87169139458015,33.26795463870984],[-115.87208324330032,33.26807738920619],[-115.8723709539229,33.268118703828826],[-115.87254729051824,33.26817936056349],[-115.87259154871563,33.268296416720894],[-115.87257786737385,33.268521706269674],[-115.87262085894672,33.268786329677546],[-115.87254597358802,33.26913751026009],[-115.87227007042156,33.269321573734864],[-115.87205389444169,33.26941468688445],[-115.87195479858775,33.269501367677705],[-115.87211600575705,33.26974407689606],[-115.87212229396405,33.26987526699127],[-115.87192144503958,33.270475560051345],[-115.87187235031267,33.27084687602148],[-115.87166352524677,33.27162045152102],[-115.871492070995,33.27180213340471],[-115.87093786885521,33.27226132798652],[-115.87062201401478,33.27245210607334],[-115.87005196559336,33.272679562205305],[-115.86959864785322,33.27291383954667],[-115.87011385951644,33.2730583379993],[-115.87028391419298,33.27313682873454],[-115.87038664642719,33.27343327580152],[-115.87026635662076,33.27363743721039],[-115.86999054328581,33.2737610982457],[-115.87030369599385,33.27389451365505],[-115.8708264849465,33.27404182614082],[-115.87100161959597,33.274158321673525],[-115.87099930014591,33.274410272998416],[-115.87094002211694,33.2745636131915],[-115.87093952445028,33.27469624479473],[-115.87118532776651,33.27494459636291],[-115.8712370419808,33.275066725692426],[-115.87105936509906,33.27524535647447],[-115.8713726166218,33.27533163643746],[-115.87149657784279,33.27542565192447],[-115.87137664646414,33.27568768439318],[-115.87150721120078,33.27573847563328],[-115.87157019837358,33.27595387525455],[-115.8715634879584,33.276057491920916],[-115.87130507588884,33.27644737793844],[-115.87117792834353,33.27686804342681],[-115.87089307436354,33.27723071131759],[-115.87078722587363,33.27742806342624],[-115.87123168353013,33.277429970247624],[-115.87176106791355,33.2775540922895],[-115.87194339627183,33.27771967593903],[-115.8723183638512,33.278195161017145],[-115.87287927371126,33.27849457314413],[-115.8732452886805,33.27861834445618],[-115.873480345451,33.2786405072889],[-115.87361776612993,33.27862381175439],[-115.8737154130013,33.27870782786325],[-115.87374739302541,33.27879649258758],[-115.874022792237,33.278719940018746],[-115.8742000603853,33.27873716198693],[-115.87426326944194,33.2788642253409],[-115.87407891987428,33.27902906677134],[-115.87435353036506,33.2791556941216],[-115.87469255006171,33.27917884212688],[-115.8747837919451,33.27926346976415],[-115.87473809195167,33.27936198774483],[-115.87495194937979,33.27960577051061],[-115.87523417488924,33.279585347976564],[-115.87517907672128,33.2797811755042],[-115.87519877947041,33.27991906212829],[-115.8754451442337,33.28009234870104],[-115.87511703727111,33.280292566869974],[-115.87512289698172,33.28038676551231],[-115.87526456669191,33.28061858897971],[-115.87529545885621,33.28087090916785],[-115.8753658167059,33.28104790670425],[-115.87528367745126,33.28144849139884],[-115.87579534076912,33.281461872326936],[-115.87617488616317,33.28134397319743],[-115.87651675262097,33.281195620909735],[-115.87751449074578,33.28089968833924],[-115.8780567677502,33.280956798317064],[-115.87806889141328,33.28107916705969],[-115.87707675608088,33.28165584899389],[-115.876903267145,33.281896167116685],[-115.87681020168156,33.28224216283192],[-115.87681795234583,33.28290287168251],[-115.87673029204547,33.2832092703924],[-115.87671549499612,33.2834951930892],[-115.87737840226845,33.28404865302751],[-115.87808316564313,33.28430560419345],[-115.87769545995303,33.2845615055238],[-115.8777662229429,33.28466598232477],[-115.87831513670064,33.284725025787345],[-115.87856322982253,33.28478095727533],[-115.87845787540601,33.28489112300006],[-115.87818333318721,33.284944290892625],[-115.87797899071458,33.28503502790426],[-115.87784020998635,33.2852658928349],[-115.87791043039377,33.28546517847958],[-115.87811231327915,33.2857398424339],[-115.87854047729304,33.28611592501853],[-115.87885375217196,33.28622222248302],[-115.87929251989944,33.28623122396563],[-115.87976857579606,33.28645354459641],[-115.88029159920897,33.28649441498126],[-115.8805197919524,33.28664980652393],[-115.88068250290148,33.2867218007344],[-115.88129202509312,33.286686241806095],[-115.88162516621458,33.28680426363041],[-115.88174184928512,33.28693581707216],[-115.88162212272236,33.28709033374675],[-115.8816936061611,33.28716153085811],[-115.88189053932926,33.2871362771115],[-115.88251155366834,33.28720950694914],[-115.88272027003808,33.28732636187524],[-115.8826545385121,33.28743600399464],[-115.88258011758239,33.28773329385057],[-115.88303160725093,33.287723554364455],[-115.8835603062198,33.287843075881305],[-115.88416954184888,33.28776769442777],[-115.88443114922593,33.28784160707557],[-115.88474384379316,33.28806329658458],[-115.8847747251777,33.28831645580382],[-115.88459477825324,33.28857799752461],[-115.88411341960149,33.28908788808745],[-115.88407161021156,33.28950095353237],[-115.88424607471784,33.28981975957894],[-115.88444830345458,33.28988049209595],[-115.88477199160428,33.289493249957744],[-115.88529416970252,33.288758218129],[-115.8856640707837,33.2883986280894],[-115.88594752429013,33.28821198938043],[-115.88614443500043,33.28803771044069],[-115.88632286377204,33.28782493733059],[-115.88663883719009,33.28752828607385],[-115.88686824176081,33.28749150947187],[-115.8870640062208,33.28765134696687],[-115.88722631113136,33.28783536239831],[-115.88720447308683,33.28811538272046],[-115.88707877272742,33.28830129624809],[-115.88692694217306,33.288414850177574],[-115.8867242552955,33.28840857475366],[-115.88653330760208,33.28846735887032],[-115.88604357575356,33.28926313285398],[-115.88562086541181,33.289794082339505],[-115.88523086272951,33.290191884593234],[-115.88513720886957,33.29044585461714],[-115.88551093497722,33.29040870980144],[-115.88600378847133,33.29024157558137],[-115.88633837677867,33.290085027284405],[-115.88666511111549,33.290119541822726],[-115.8869066204847,33.29024492460648],[-115.88716740769989,33.290328393385224],[-115.8876843593998,33.29038339992606],[-115.8876445694226,33.290491168462545],[-115.8874206975757,33.290622130644685],[-115.8873413996923,33.29074764861882],[-115.88762788321621,33.29089894320359],[-115.88769889683604,33.29099890553973],[-115.887620659863,33.29109736747285],[-115.88771113458515,33.29126238854056],[-115.88803689604651,33.291439388280416],[-115.88806102659169,33.291615532396676],[-115.88813879374585,33.291818753967775],[-115.88838016477449,33.29194695089015],[-115.8885871222429,33.29222177540658],[-115.88857067947993,33.292683462876994],[-115.88869919246449,33.292982800523035],[-115.88898546308764,33.29324245707244],[-115.88929236711458,33.29331038961104],[-115.88946996224959,33.29317886380062],[-115.8895547973484,33.29323868767134],[-115.88958591049828,33.293448670845066],[-115.8900807456759,33.29376363527205],[-115.89028942790965,33.29384265477454],[-115.89040812140986,33.29376655241057],[-115.89057354706773,33.29355866118597],[-115.89062354909308,33.293877426877],[-115.89068739954683,33.29405784077241],[-115.89107783072552,33.294276136334055],[-115.891379912596,33.29428800605132],[-115.89233140365337,33.29397332284113],[-115.89259896955569,33.2939712279127],[-115.89262460567726,33.2941183570927],[-115.89245275616679,33.2942881967717],[-115.892215920732,33.29442321168833],[-115.89199222944647,33.29461571413124],[-115.89217568339382,33.29464385579122],[-115.89230685898487,33.29457300417602],[-115.89252267474029,33.29461784733828],[-115.89264583556236,33.294832598176264],[-115.89291246811514,33.29501137622187],[-115.8932388583972,33.29511810735969],[-115.89391241070565,33.295241165807994],[-115.89445311026842,33.29558487406513],[-115.89475951213711,33.295701879208835],[-115.89518915298129,33.29601274860944],[-115.89545958001779,33.29668470450755],[-115.89556358246982,33.29678953170482],[-115.89569422805484,33.29677453730573],[-115.89587885610024,33.29657157430708],[-115.8961377676331,33.2960275666891],[-115.89636899668221,33.295831943807265],[-115.8966188235526,33.2957117889995],[-115.89672934687528,33.295800765323435],[-115.8964712240632,33.29617970133108],[-115.8963511354794,33.29642622277041],[-115.89623132178008,33.29673258676249],[-115.89622821810077,33.29704038003658],[-115.89630019291793,33.29720669257541],[-115.89654728980823,33.29735455137248],[-115.89671686747933,33.29741773914991],[-115.89718660552457,33.297660632792436],[-115.89752019580362,33.29770608855327],[-115.8978216075309,33.297653004271254],[-115.89812980513184,33.297650683428756],[-115.89863183761155,33.29776831124956],[-115.89933060652832,33.298047477529266],[-115.89955187056596,33.298234463107924],[-115.89962874299808,33.298514405006216],[-115.89961778444994,33.29899463314082],[-115.89949811268443,33.299317936473415],[-115.89877008563882,33.3004412008329],[-115.89868850872956,33.30077407691128],[-115.89859092923182,33.301522081285555],[-115.89872248031867,33.30155481264191],[-115.8990113883955,33.301327702049235],[-115.89920982534342,33.30112382539901],[-115.89960744214605,33.30053208841017],[-115.89996953686742,33.300154392888764],[-115.90028722786428,33.29973951960021],[-115.9009655924477,33.299143887696026],[-115.9011654649035,33.29855941883359],[-115.90142119460363,33.29878161945527],[-115.90142534571856,33.29890944199476],[-115.90157520716582,33.298964567011986],[-115.90161856165807,33.298953106381184],[-115.9020973762809,33.29936913217087],[-115.90206851520746,33.29947386829593],[-115.90185138521677,33.299773872646895],[-115.9018501760844,33.30000609735624],[-115.90197318239625,33.300054882523796],[-115.90222905403019,33.300091286680406],[-115.90239135534753,33.300256929680806],[-115.90236715742874,33.30072735988291],[-115.90312513700084,33.30026209980178],[-115.90379654323407,33.30084543554324],[-115.91301267504252,33.30086911387443],[-115.9130556432592,33.30092157903293],[-115.91342827342221,33.30111572266949],[-115.9137012849118,33.301341526659215],[-115.91425969565869,33.30194428893721],[-115.9147787386366,33.30263423626458],[-115.91497352123797,33.30283462194546],[-115.9156325549748,33.303072446922606],[-115.91614785287629,33.30334484812851],[-115.91644713020645,33.30358232184727],[-115.91683145463783,33.30398741065674],[-115.9171848590571,33.304779710377225],[-115.91746338440592,33.305232325857965],[-115.91750115137708,33.30552353313878],[-115.91762275721541,33.30581608557502],[-115.9179344016521,33.306185797715955],[-115.91804423237367,33.306367575067455],[-115.9180945515043,33.30664315071066],[-115.91822429967239,33.3068358093711],[-115.91859633694729,33.3070423280993],[-115.91885728855416,33.30722901736548],[-115.91951961461652,33.30794726820989],[-115.91976479809523,33.308317387979784],[-115.9199779889734,33.30872896298876],[-115.92015624167523,33.30956711214365],[-115.92057764496828,33.310042105374656],[-115.92077888915148,33.31037253046231],[-115.92087430460771,33.3106263118568],[-115.92114237176997,33.310759630367734],[-115.921505659454,33.31121614634092],[-115.92184458662418,33.311394642317104],[-115.9221972409502,33.311495177988185],[-115.92346587952368,33.311654831870044],[-115.92389007028906,33.31186604017074],[-115.92437855078435,33.312165648306916],[-115.9251502386477,33.312368540483995],[-115.92555575254002,33.31244251937082],[-115.9264428748157,33.3138058193922],[-115.93190374510596,33.31889055180216],[-115.9319109720524,33.31919551497792],[-115.93196723084372,33.319585869558786],[-115.93230141940077,33.32042340314999],[-115.93232528853618,33.320797348509004],[-115.93223759230318,33.32116698060901],[-115.93186576613235,33.32180207363039],[-115.93174589943243,33.32217054550262],[-115.9317791990817,33.322951211254654],[-115.93214141866889,33.32370029392114],[-115.93217235574893,33.323896417997965],[-115.93239863238587,33.32428387669003],[-115.93263253032964,33.32458130366672],[-115.93257737826278,33.324905264236946],[-115.93272918276601,33.325653235735395],[-115.93283911859048,33.32588014936065],[-115.93332898608459,33.32606941410694],[-115.93313569738154,33.32646881854531],[-115.93328459673315,33.32676768970167],[-115.93368166376682,33.32717682977386],[-115.9341161635984,33.32769455891171],[-115.934341709905,33.328201924027205],[-115.93441680097791,33.328664349472625],[-115.93454643865317,33.328906645687645],[-115.93474150512219,33.32914311832588],[-115.93521691782506,33.329530526668435],[-115.93547025261664,33.329789700615684],[-115.93572410483783,33.32990722578601],[-115.93608287758927,33.330139723750484],[-115.9362323734222,33.33034830459305],[-115.93629041716598,33.33049375870175],[-115.9364912337511,33.33072958831096],[-115.93695983812243,33.331106018050285],[-115.937259378659,33.33129545608026],[-115.93758111836286,33.331372246218535],[-115.93767044773303,33.3316218324641],[-115.93766940299231,33.33181341217727],[-115.93775993610498,33.33197358274352],[-115.93802628299346,33.332293892970974],[-115.93826795765268,33.332420003185334],[-115.938659766847,33.332531769679335],[-115.93884269078828,33.332670998940145],[-115.93932935039851,33.333200741479764],[-115.93961694693505,33.33339425559166],[-115.93975848189793,33.33361439654733],[-115.9399600000673,33.333830207155415],[-115.94023344274822,33.33403139399216],[-115.94061929790885,33.33417454534747],[-115.94097751639976,33.334418575705264],[-115.94117741400837,33.334837512393],[-115.94139869870722,33.33507406875181],[-115.94173065764575,33.33530642533991],[-115.94213636377754,33.335501646693785],[-115.94245489020759,33.33580661027719],[-115.94270613012795,33.33631854301158],[-115.94296661101761,33.33654380702132],[-115.94340667501405,33.336486560072956],[-115.94350341818027,33.33659107073642],[-115.94348947363208,33.336739571967556],[-115.94332478369442,33.33691425341303],[-115.94334919271733,33.337067804203066],[-115.94409913775755,33.33751189601862],[-115.94434663619475,33.33782078514622],[-115.94442938271051,33.33811443147269],[-115.94470298708818,33.33824703624919],[-115.94515254807379,33.33775299235411],[-115.94548526698705,33.33790493711348],[-115.94554895574406,33.338157542625424],[-115.94555909143541,33.33845958051647],[-115.94567586074423,33.338744573100385],[-115.9460540137496,33.339000025009355],[-115.94661548236174,33.33926235207063],[-115.94713810063448,33.339463452813916],[-115.94749182126075,33.33941408781514],[-115.94778656838693,33.33944811002699],[-115.94811926394401,33.33962713655701],[-115.94828825052365,33.33977036427037],[-115.94838947179157,33.34024894675884],[-115.94859878913425,33.34040462825964],[-115.94904317851878,33.34049369330756],[-115.94941347126542,33.34049484753009],[-115.94973764630198,33.3407759542885],[-115.94972900720389,33.34082650950638],[-115.94985921620771,33.34092685437865],[-115.94997965064292,33.340985804216764],[-115.95242363954424,33.34310498503337],[-115.9526645191944,33.34342436730218],[-115.95315272390692,33.34392671791731],[-115.9537446454072,33.34433091607281],[-115.95398390988647,33.34445781482755],[-115.95454977215869,33.34494842948859],[-115.9548572511074,33.34552392065887],[-115.95487472783124,33.34581436521825],[-115.95496475968396,33.346117574226625],[-115.95517186357777,33.34641651829996],[-115.95547219193682,33.34663866222282],[-115.95545752963476,33.34684131805209],[-115.95539767758233,33.347027961088635],[-115.9557492997441,33.34733773346641],[-115.95572061743536,33.347585038496206],[-115.95559535545382,33.347809969449926],[-115.95563085956883,33.34838015362582],[-115.95590557695911,33.349384190709344],[-115.9561649466328,33.34969234436577],[-115.95693258938242,33.3502941532147],[-115.95716760752536,33.35042731423907],[-115.95766141682694,33.350099900752326],[-115.95800330484428,33.349947078305384],[-115.9582390721822,33.350025800005916],[-115.95814479578975,33.3502953020546],[-115.95797306395855,33.35056908195259],[-115.95788581149333,33.35093167899154],[-115.95805455283292,33.35114006446986],[-115.95889441294489,33.35191404894362],[-115.95961043490502,33.352501569718235],[-115.95982214715625,33.35319997183673],[-115.95985261801069,33.353552396580426],[-115.96004049795741,33.35376767305216],[-115.96036016884115,33.353966790127],[-115.96072356701798,33.35453517216018],[-115.96093123954536,33.354717857128726],[-115.96142140258517,33.35497218093104],[-115.96187088092582,33.35528712791522],[-115.96207478951216,33.355332246734754],[-115.9623364094656,33.355345287675696],[-115.96250488670051,33.35547323060806],[-115.96265567341253,33.35553281213876],[-115.96302173599251,33.35560546754565],[-115.96366331097181,33.35588543903249],[-115.98097501430664,33.366197934028634],[-115.99555576641423,33.37060201583014],[-116.00097969798001,33.375419906505066],[-116.00102962275025,33.37562956864374],[-116.00101368304385,33.37573284630491],[-116.00089254163451,33.37583070165005],[-116.000857876546,33.37591892252462],[-116.00089964820674,33.37611708421774],[-116.00101701399691,33.37617457741498],[-116.00182545553179,33.376370290001816],[-116.00220892566534,33.376520176436266],[-116.0024530266741,33.376728481138315],[-116.0037439524498,33.37787500137423],[-116.00370827495999,33.3783225457195],[-116.00358324204883,33.37890589671096],[-116.00368423424635,33.379062133938454],[-116.00396306142909,33.3792424487443],[-116.00437250634906,33.379671475797046],[-116.00492578142747,33.379831880125046],[-116.00522646911264,33.380199205559144],[-116.00571842968135,33.38016245005666],[-116.00606025032508,33.38018555848947],[-116.0064388174538,33.38026827576671],[-116.01011460142554,33.383532383240734],[-116.02442607634019,33.39296188382653],[-116.02896911365012,33.39518614952188],[-116.02916469665041,33.39562269534282],[-116.02932667457426,33.396214465887915],[-116.02939948033307,33.39703786170241],[-116.02927937288464,33.39737760295674],[-116.02888796164402,33.39757234909465],[-116.02878127951747,33.397919048773595],[-116.02879095347478,33.39809546435916],[-116.02854102778969,33.39919813446332],[-116.02847549838465,33.39973674684179],[-116.0285841334486,33.400145201229584],[-116.02863069851966,33.400659543829526],[-116.02862172165503,33.40163355810432],[-116.0285534523884,33.40280582280944],[-116.02861443362313,33.40440447794877],[-116.02861318586321,33.40529100542245],[-116.02867491629293,33.406040074719634],[-116.02864600581212,33.406982626773086],[-116.02868537447945,33.40865077087825],[-116.02882462412828,33.4088568569336],[-116.02922504547122,33.40914916497156],[-116.02951202127187,33.409236859365784],[-116.0299633456504,33.40931058497823],[-116.03053682383958,33.40947522989649],[-116.03093298087988,33.40965790145699],[-116.03114487009921,33.409896730503306],[-116.0312853109141,33.41033507783664],[-116.03143784395101,33.410557992127494],[-116.03164455078947,33.410698726013074],[-116.0317206425856,33.41081709125351],[-116.03183021638903,33.41118042247071],[-116.0318596955034,33.41160668313982],[-116.0320550790777,33.411657854075756],[-116.03219334686788,33.41166158835835],[-116.03238326688863,33.41165387533989],[-116.0327076871653,33.41157047406614],[-116.03304147687035,33.41158221007285],[-116.03313629764187,33.411646746458615],[-116.03314616204202,33.41178550571194],[-116.03305404699613,33.41189613697827],[-116.03241030438205,33.41190679915029],[-116.0320479329796,33.411989710447045],[-116.03240844397112,33.412287656566306],[-116.03302196186911,33.41299093702815],[-116.03333404827694,33.413397503239544],[-116.0336267616173,33.41405789914572],[-116.03368971285748,33.41443313388664],[-116.03391536696188,33.41495573072807],[-116.03396520369724,33.41559404377813],[-116.03403590649998,33.41594866910977],[-116.03422967670002,33.41637618481148],[-116.0344213331642,33.41658325653668],[-116.03459045808444,33.417208547705606],[-116.03470285978436,33.41801440390534],[-116.0349295891722,33.41868432384332],[-116.0351878808675,33.419199880058706],[-116.0355121340575,33.41961927830341],[-116.03564489697168,33.419868576948524],[-116.03572133102593,33.4202163460618],[-116.03596185763821,33.42089295351053],[-116.03639598556725,33.422817021432486],[-116.03687579462512,33.424735350916556],[-116.037007377153,33.42557516552384],[-116.03701234932811,33.42623079649833],[-116.03777868592728,33.42654127493245],[-116.03849855896507,33.42668477114716],[-116.03943474632324,33.426804252680995],[-116.04059761276358,33.42677931456898],[-116.04206082193605,33.426858574001386],[-116.0433961460463,33.42676544689739],[-116.04443259437336,33.42625467315039],[-116.04545952145669,33.42558357381031],[-116.04673032676662,33.42462417594825],[-116.04760822873423,33.42416453367505],[-116.04897666205096,33.42376918017333],[-116.0510999434127,33.423462301140695],[-116.05241825702474,33.423202564211415],[-116.05331632886542,33.42331072473455],[-116.0539203183332,33.423276541882124],[-116.05431236378448,33.422853467989164],[-116.05445198803076,33.42249154342868],[-116.05434522864914,33.42200136911858],[-116.05403666273894,33.42167004660284],[-116.05386248479525,33.42129912433557],[-116.05387239321281,33.42113079944782],[-116.05706839507616,33.421894704250064],[-116.05738955357,33.42310127582785],[-116.06091335157882,33.42595726527812],[-116.05766095078701,33.435210562680815],[-116.04404912962973,33.438778840748505],[-116.0443303750772,33.44073327524747],[-116.0457523524764,33.44138254455591],[-116.04648281575302,33.44284017150512],[-116.04896301843841,33.45495632436999],[-116.05381631947448,33.45807828388932],[-116.0549428975706,33.45957909640918],[-116.05832428655576,33.46176346292725],[-116.05846979925872,33.462405823307364],[-116.06627558954581,33.46515725865207],[-116.07332277772832,33.468793210162296],[-116.07777383743465,33.472380803171795],[-116.07975994515421,33.4749210499886],[-116.08061724156583,33.47730835783703],[-116.08072273881446,33.4809049760128],[-116.08162832236756,33.481118439983014],[-116.0829677418972,33.48305388752483],[-116.08322636327426,33.48605312469153],[-116.08195625685362,33.49293949884842],[-116.0800334093947,33.49776891985938],[-116.07976138784855,33.49906988410785],[-116.08254579692006,33.49912680748153],[-116.08397549354252,33.49972651983041],[-116.08394906870011,33.50063750863366],[-116.08434735384932,33.50060076666435],[-116.08467364441837,33.501545139466515],[-116.08487865703421,33.502710368965],[-116.08478585118391,33.50413088337592],[-116.0854511434833,33.505325136571166],[-116.08577592847598,33.50626535309896],[-116.08538171449165,33.50671792601332],[-116.08530051846806,33.50734805102077],[-116.0856112259619,33.50869671402978],[-116.08554708175902,33.50961378999392],[-116.08489724407578,33.51167862036916],[-116.08463750160125,33.51207565150842],[-116.08378152301816,33.51211895123503],[-116.08352341996905,33.512158180943906],[-116.08177928425104,33.51205429037189],[-116.08108156815979,33.51251462544164],[-116.08114515810212,33.51325734705903],[-116.0828787152593,33.51338654036184],[-116.08262938695388,33.51395076050804],[-116.08254951774194,33.514044709960764],[-116.08234801125069,33.51479130931332],[-116.08230727355087,33.51491979405327],[-116.08236345508705,33.51581688109893],[-116.07992305765026,33.51611251504066],[-116.07911990000586,33.51633102851932],[-116.07738423540101,33.515411358953855],[-116.07718680007461,33.51420690992528],[-116.07662762216641,33.51301749487749],[-116.07694063114403,33.512019802461246],[-116.07568660905854,33.51080316344922],[-116.07480482906386,33.51036439954194],[-116.07402012551033,33.50987650755927],[-116.07372912974878,33.50977767304622],[-116.07284994498694,33.50985855011695],[-116.07341810425135,33.511081136710004],[-116.07283597348933,33.51112043729501],[-116.07201035077634,33.51029314089589],[-116.07169041219461,33.51122516037307],[-116.06991396946576,33.51214376818297],[-116.06810330182289,33.50667015634151],[-116.06765778505267,33.506903442869884],[-116.06793695449353,33.50823360449792],[-116.06819319084349,33.509437196669566],[-116.06766255420852,33.51282310671164],[-116.06650477043607,33.51364653818144],[-116.06431987093404,33.51208562652823],[-116.0640159636869,33.51132597956584],[-116.06347343874747,33.51073785371824],[-116.0629908799465,33.510122227163286],[-116.06130329497232,33.50905426110406],[-116.06034147957737,33.50968575701255],[-116.05733892991046,33.507212923875144],[-116.0571197032519,33.506379752872036],[-116.05590833587107,33.5058182548134],[-116.0558571336965,33.50514859666616],[-116.05535488562116,33.50540285083839],[-116.0549116478768,33.50556996575147],[-116.05473637309017,33.50643820022245],[-116.05475878964974,33.506933853589466],[-116.0551879166576,33.50720081355802],[-116.05557922998189,33.50733639912818],[-116.05633446789577,33.507491677920335],[-116.05782991940036,33.50861505015346],[-116.0568983457895,33.5085682462643],[-116.05923935182665,33.51071100882496],[-116.05985616205017,33.51231041319731],[-116.06054198624373,33.51273094225496],[-116.06070712533905,33.51615100746734],[-116.06072558032825,33.51645536553469],[-116.06110526585948,33.52197461656189],[-116.06259185638213,33.52181167626659],[-116.06265966391474,33.52256009206384],[-116.06306962895927,33.523813026023085],[-116.06297148981109,33.52479404871111],[-116.06338900609391,33.52510553486452],[-116.06408834454261,33.52568569540984],[-116.06418500686044,33.52659664232788],[-116.06418678193145,33.526661161270525],[-116.06428628472219,33.52667194263008],[-116.06547006933224,33.52665204163369],[-116.0659620146296,33.527014542338925],[-116.06570656430551,33.52831272826962],[-116.06143494846708,33.52831034768408],[-116.06069237769702,33.53374628552371],[-116.0602466713823,33.53284852031323],[-116.06002156345355,33.532693220389994],[-116.05824741502192,33.53249057661909],[-116.05812456411861,33.533041479682325],[-116.05810458738333,33.532518742395176],[-116.05804174304268,33.53382967861555],[-116.05785084026505,33.534201466502694],[-116.05726102261916,33.5341337318622],[-116.056921081251,33.533265770848296],[-116.0550731838295,33.53322395086209],[-116.05456891274812,33.53251875662255],[-116.05382623148532,33.531504073021736],[-116.05309097839155,33.53164393594391],[-116.05225710016109,33.53271535668901],[-116.05108028737597,33.53206263226332],[-116.04761002536479,33.53130059751838],[-116.04626998150603,33.53108325632523],[-116.04479430281914,33.53049637531417],[-116.04472076044179,33.530010638190284],[-116.04405343794978,33.52885432587668],[-116.04357947512781,33.529545949634716],[-116.0429042564445,33.52963268958128],[-116.04239445623256,33.52845524876675],[-116.0430486597281,33.52803831424564],[-116.04172225588862,33.52745186188026],[-116.0395449516423,33.5272597572125],[-116.03874031357434,33.526974051549104],[-116.03744780586543,33.52641889746909],[-116.03460528657482,33.52468589946295],[-116.0266251279012,33.523841367618466],[-116.02448600474942,33.52273149272115],[-116.01318672920443,33.52250708211557],[-116.01058316627098,33.522071451804365],[-116.00892480798453,33.52082085019125],[-115.99708529730579,33.52472404134393],[-115.99367257867678,33.52481598857984],[-115.99297334083941,33.52440102254522],[-115.98803566374367,33.52501128888754],[-115.97984206805346,33.5248321770646],[-115.97547184145135,33.524158835538316],[-115.974043433013,33.52328066361851],[-115.96624406208691,33.52420835767586],[-115.96155224849454,33.524187631592355],[-115.95681908275468,33.525293998053186],[-115.95477261273963,33.525329928243664],[-115.95033808383116,33.52464964174477],[-115.9460772127418,33.52279570450486],[-115.93993905045657,33.521238584893396],[-115.93935394716931,33.52086537375628],[-115.93921986912159,33.519760245528786],[-115.93896793749846,33.520443629056466],[-115.93791604892832,33.51997761443154],[-115.93825182840175,33.51907604850953],[-115.9264649625919,33.52654598104022],[-115.91803961862638,33.53406603535728],[-115.91169085889918,33.53744910419701],[-115.90435793099783,33.54006895333682],[-115.90183620818004,33.54178778925988],[-115.90114544504905,33.542782895869664],[-115.89982511022761,33.54784793824604],[-115.89926563857036,33.55265273584983],[-115.89957491594625,33.55958344691168],[-115.89662495006283,33.56268421837301],[-115.89607322547658,33.56630784496684],[-115.89437771556493,33.571069350793834],[-115.89428175483134,33.573021580006426],[-115.8929096815411,33.57539106516295],[-115.8937960654016,33.57820889099351],[-115.89168480170174,33.5811275467209],[-115.89054856132643,33.581848519783726],[-115.88730789971875,33.582270315083015],[-115.88518862035158,33.58305063955794],[-115.8843161334285,33.583517859473105],[-115.8822387326216,33.58620792293754],[-115.88074086914045,33.586558364203285],[-115.8768124780125,33.5862971705787],[-115.87238788536939,33.587066448340906],[-115.86815766389923,33.585898760642124],[-115.86420563090964,33.586382080725706],[-115.86209354614961,33.587210022868504],[-115.85892234138136,33.58964611522185],[-115.85847643204735,33.59101106893347],[-115.8586520634652,33.59498023423283],[-115.85818027636282,33.59587563422812],[-115.85491653883214,33.598266632322265],[-115.85476114555932,33.599048198596115],[-115.85926993190415,33.60385067303019],[-115.8603648794208,33.604719112864345],[-115.86469545797955,33.60648243878184],[-115.8704439283996,33.612115379529186],[-115.87645126364012,33.61272754137062],[-115.88120159259176,33.61431323300572],[-115.89017375274886,33.612413346530104],[-115.89378985894132,33.61099266591701],[-115.89607424147115,33.610972609284346],[-115.90280628987223,33.613311217559406],[-115.90809569782587,33.612902663793975],[-115.90961184561631,33.61318642069001],[-115.91070466232914,33.61439430474561],[-115.9111516388617,33.61710748435163],[-115.9141059355231,33.618353986263074],[-115.91595779092172,33.62023890570662],[-115.91697084622045,33.62037572099357],[-115.91996949719903,33.6194463600444],[-115.92500411329372,33.61951425368129],[-115.92802689481745,33.622638603229035],[-115.9323617008479,33.62340627994293],[-115.93326639596718,33.62414951512056],[-115.93362576519995,33.625048759896146],[-115.93312283889655,33.62678374060834],[-115.93540098981329,33.627248158742894],[-115.93919094606437,33.6299326552909],[-115.94076012050775,33.63038494619519],[-115.94053192506937,33.632496925302895],[-115.94111910526159,33.63312195723443],[-115.94542143988949,33.634506738300665],[-115.94997021473917,33.6350657553398],[-115.95152788445867,33.63586008394629],[-115.95271080309277,33.637321951396444],[-115.9541283553909,33.64198436754139],[-115.9534852739369,33.64296758354664],[-115.94729972372379,33.64615320133108],[-115.94598893619718,33.6484085998617],[-115.94633240435111,33.65199533806116],[-115.94725448276944,33.652653740469745],[-115.95245624928735,33.65407322560463],[-115.95617076142763,33.65571534876791],[-115.96531380989782,33.651504987313224],[-115.96652962843089,33.65224648073203],[-115.96660597534859,33.65564570702964],[-115.96301717255088,33.66419974423784],[-115.96262773850215,33.67040799103596],[-115.965627900447,33.67991247192554],[-115.96648576100064,33.68105684056231],[-115.97094074454814,33.68372787330443],[-115.97254897145184,33.68630622425878],[-115.97209899364792,33.68977426300223],[-115.97349754747607,33.69167070703552],[-115.97230492883352,33.6939180271565],[-115.97242979645465,33.69479093482912],[-115.97332724755948,33.69594158079674],[-115.97484895053164,33.6965103221141],[-115.97627267964566,33.69780317535234],[-115.9779026332028,33.70205640006082],[-115.97935722842999,33.7040225732234],[-115.98197012396093,33.705346489722935],[-115.98287533471319,33.706420756924835],[-115.98492030184677,33.711905064503405],[-115.98821292380711,33.71596940053648],[-115.98941061523608,33.7182084942266],[-115.99857089069846,33.72663850915225],[-115.9989379450185,33.728232434605665],[-115.99815086272613,33.730050432529126],[-115.99403659758947,33.733175390553164],[-115.99366710703842,33.73399240081487],[-115.99569770112744,33.738071069375636],[-116.00391781867809,33.74374803370984],[-116.00885385814507,33.74573188872609],[-116.01022635544012,33.74730687548728],[-116.00934663258747,33.74828292728298],[-116.00679259916548,33.7496084064661],[-116.00813633330347,33.753210392872774],[-116.0057343478282,33.75717290130352],[-116.00667596280732,33.75924437141352],[-116.00613676522771,33.76066395341391],[-116.00794252896745,33.76239666273056],[-116.00866678578379,33.76869375406169],[-116.00801069223287,33.7698824083983],[-116.00695929234625,33.7703513533064],[-116.0050505430474,33.76967019188272],[-116.0023628079718,33.7678889397434],[-115.99965075999309,33.76942281325418],[-115.99936295055582,33.77018297568797],[-116.00079569426372,33.775354783950625],[-115.99822574718652,33.77841161998879],[-115.99836656080225,33.77974684987837],[-116.00559665495977,33.78726059493613],[-116.00684712151336,33.78961898369332],[-116.00924876832376,33.79072331936725],[-116.01142349979507,33.794862674724385],[-116.01395847725492,33.7959006509029],[-116.01528875552822,33.800841024697775],[-116.01630954981312,33.80096329409138],[-116.01707260306999,33.798649374695444],[-116.0191122351091,33.797391586035594],[-116.02109167912585,33.798056528700606],[-116.02223680383933,33.799305367600184],[-116.02474477345015,33.79928133950883],[-116.02631460635861,33.800439581686895],[-116.0265872423524,33.80184529842247],[-116.0257962029812,33.805250832619656],[-116.02628537428096,33.810318042241086],[-116.02390724805964,33.812592904730444],[-116.02387540637608,33.813170751709045],[-116.02618291962617,33.81481821283883],[-116.02878596872326,33.81806905431075],[-116.03431787329463,33.82101999939098],[-116.03636855910332,33.823374796664375],[-116.03571174061197,33.82939296354942],[-116.03348231970614,33.83253103792804],[-116.03345592001659,33.8330764010484],[-116.0350998531562,33.835002594751195],[-116.04343621809451,33.841437150798576],[-116.0480754461068,33.84371695435875],[-116.05154206904271,33.84676907696854],[-116.06166263096743,33.851923245320215],[-116.065494916733,33.85443075779478],[-116.06932438178859,33.85928904218085],[-116.06909273322627,33.86154469964957],[-116.06948875012941,33.862159514430665],[-116.07620051457133,33.86952848450108],[-116.08011743690804,33.87132004263334],[-116.08223441299481,33.868597585787114],[-116.08363214935609,33.86799102442154],[-116.08750120765782,33.8673869239384],[-116.08950695165116,33.86453026513181],[-116.09252505834215,33.86421784003828],[-116.09357210589123,33.864565084798606],[-116.09471119751927,33.865769790278215],[-116.09692472093951,33.8705661011621],[-116.09880478792964,33.872479370557016],[-116.10198925452642,33.87345497017772],[-116.10504485599904,33.87595828237099],[-116.10880543195046,33.87594187426581],[-116.10993730112361,33.87637010538709],[-116.1131132768443,33.87911800622735],[-116.11387265688992,33.88032416793057],[-116.1143283210296,33.884058650998576],[-116.11244387385413,33.88611567372613],[-116.11217819621055,33.88771011815328],[-116.11506763720338,33.892877218563164],[-116.11395347112955,33.89434161028341],[-116.1147719082186,33.895795157485715],[-116.1138929085097,33.89812268849874],[-116.11518672596229,33.90003557412126],[-116.11677160205848,33.90101578709691],[-116.11579558429892,33.902463628600565],[-116.1161692942369,33.90297333035447],[-116.11747869745966,33.903387306683044],[-116.11910325034532,33.90470712916089],[-116.12484068316546,33.904324581501214],[-116.13017866751814,33.90487532024579],[-116.13406749055275,33.90291769614643],[-116.13496491111486,33.903125786299526],[-116.1361730221028,33.904000703148284],[-116.13741210520514,33.90590493886114],[-116.13789497033157,33.90927448924962],[-116.13661250039767,33.91144881265655],[-116.13728794904969,33.91314317073805],[-116.13938457290541,33.91437468762616],[-116.14543560579459,33.91637748423787],[-116.14983298756945,33.920720334855176],[-116.15150395460923,33.92076221989438],[-116.15426093991172,33.91956870028626],[-116.15819546024487,33.92031533276918],[-116.16111409289115,33.92035574875573],[-116.16508904639525,33.923174336727264],[-116.16817865898284,33.924407596734596],[-116.1705559524659,33.927378625703746],[-116.17276607755942,33.92863895155946],[-116.1742401096344,33.928650602315045],[-116.17734406023223,33.927615366344746],[-116.17902093459331,33.92844284579579],[-116.18214807789519,33.92857803681261],[-116.18801239774922,33.93091333428947],[-116.19030099517438,33.93382795958922],[-116.19290525879376,33.935147801031185],[-116.19649299529122,33.938641227622384],[-116.1964270131353,33.94281258340105],[-116.20169021094391,33.94867240153174],[-116.20273217852007,33.95272056027751],[-116.2035537462379,33.95376262426239],[-116.20523833083905,33.95495680769165],[-116.20829117448376,33.95586750737635],[-116.210170888436,33.95747324226586],[-116.21086386052428,33.958492462865586],[-116.21031950302165,33.959986868686656],[-116.21072682791758,33.96106855561678],[-116.21282420366315,33.9617888897735],[-116.21486635008674,33.963754685797944],[-116.22116091984273,33.965288860388185],[-116.22134744423171,33.96804146856642],[-116.22207838271713,33.96997647823098],[-116.22634172058024,33.97323982959416],[-116.22984728099216,33.97493599245342],[-116.23158464071795,33.976634481452564],[-116.23209368634505,33.97757631598186],[-116.23122944056641,33.979732548286016],[-116.2317446692976,33.98054079111986],[-116.23548426868884,33.98137551269563],[-116.2370730641346,33.98328777855929],[-116.24069710514598,33.98558299543348],[-116.24057836673006,33.98893163165476],[-116.24384680604294,33.99127410053189],[-116.24559337889029,33.993628556331004],[-116.24491749365704,33.99605651546764],[-116.24482664433742,33.99977770957185],[-116.24740305119981,34.003276161769726],[-116.24829925095145,34.0032155193985],[-116.24992666586961,34.00115765294368],[-116.25179461817982,33.999748818159404],[-116.25695947921095,33.99847035624553],[-116.25812979537993,33.999578411204595],[-116.25865197707144,34.00284327805841],[-116.26139313405865,34.00626205037146],[-116.26389752118808,34.007595947447875],[-116.26602402480677,34.00807623623479],[-116.26729983822442,34.00747192992896],[-116.26995077201774,34.001963465303064],[-116.27232968157001,34.00026226447446],[-116.27725955859414,33.999062543312654],[-116.27928307755201,33.995721833028135],[-116.2801849259101,33.995085235274104],[-116.28531903850737,33.99437444088122],[-116.28735208230218,33.995737249116765],[-116.2913994786457,33.99720209173191],[-116.29507163522032,33.99471206903376],[-116.2940476716791,33.99139753691328],[-116.2944217400449,33.99063938810705],[-116.29805314634325,33.990475381744595],[-116.29946319950541,33.98958685972937],[-116.30073810472628,33.98786319759356],[-116.30196091933882,33.98777220895095],[-116.30908909603404,33.99299756463178],[-116.31183125733777,33.99582645294531],[-116.31923169003943,34.00537710711686],[-116.32463888688979,34.010967673409276],[-116.32812251134077,34.012745181261764],[-116.3280936430808,34.016569799996255],[-116.331012397898,34.01998589320581],[-116.33110863171945,34.02133471883052],[-116.33226631218564,34.02259665100458],[-116.33399815895054,34.02298066992557],[-116.33754892887576,34.022331893284786],[-116.34070475358803,34.023416059816235],[-116.34485115505564,34.026955344090204],[-116.34814140905688,34.030556503242664],[-116.35064069285723,34.034255666565315],[-116.35985100358263,34.036659338826986],[-116.36652157847216,34.04082853821778],[-116.36964243446532,34.0406758733962],[-116.37213248268621,34.043595730848914],[-116.37297262307253,34.043917318261386],[-116.3787726064842,34.04435033715457],[-116.38224670969156,34.044134037518866],[-116.38425874997671,34.045494055228154],[-116.38567491078446,34.04729918077652],[-116.38658665678037,34.0474735172271],[-116.39078391367286,34.045248225329324],[-116.39384486101976,34.04484028796603],[-116.3954637473326,34.045251845055546],[-116.3983894380421,34.047232965849425],[-116.40482725854321,34.04876899965577],[-116.40643920087889,34.04990028415573],[-116.40758057422778,34.05210497510336],[-116.40748921017348,34.0535043900551],[-116.40623138282446,34.055883871318535],[-116.40702008927087,34.05730564097393],[-116.40955459062361,34.058031576684805],[-116.41252019258283,34.05661004545507],[-116.41319325800443,34.05688798531276],[-116.41574039416162,34.06030173850121],[-116.42250536312288,34.06482212204486],[-116.42349247148293,34.0667604522361],[-116.42392731447094,34.070001190030304],[-116.42485702856916,34.07097881223628],[-116.42930365149634,34.07093466839063],[-116.43212797361421,34.07153669592456],[-116.43950024413174,34.078144726031375],[-116.44168261846951,34.07859505370418],[-116.4455384787231,34.077327270860174],[-116.4468149416227,34.07752630180804],[-116.4486392465899,34.078973002874356],[-116.4497854411969,34.080329667015576],[-116.45131008884655,34.08109522274983],[-116.4551534562295,34.08163141634028],[-116.45795649366505,34.08275928093337],[-116.4649017760634,34.08865723426768],[-116.47350552005445,34.08977872857927],[-116.47876102918258,34.0913349181375],[-116.48004938038663,34.0913155393617],[-116.48167916595882,34.0907053537583],[-116.48369239112186,34.08860245432112],[-116.48545714137899,34.08347439576686],[-116.48880771635325,34.08201679585328],[-116.49124819463844,34.07949096084709],[-116.49404269448551,34.07890477028888],[-116.50132045954021,34.081779403411616],[-116.50318759528183,34.082038241404945],[-116.5044818996213,34.081407072232544],[-116.50551899922692,34.080076314029554],[-116.50785872426648,34.079246391740156],[-116.51046808223184,34.07744288333348],[-116.51748981754906,34.07569128696192],[-116.51749453100935,34.07568757552645],[-116.51991128029631,34.075679536562475],[-116.51986034312476,34.09023960601663],[-116.51113725435496,34.0902051107661],[-116.51115909419615,34.09746306363753],[-116.51148499759132,34.10458228566412],[-116.51128565065001,34.11829442546671],[-116.51295442490216,34.11829815734526],[-116.51302687223321,34.11823969593942],[-116.51348246450765,34.11811749273692],[-116.51384386662791,34.118193388027954],[-116.51415805329684,34.118300849533306],[-116.52869676604577,34.118333364019016],[-116.54612720510164,34.11831582389833],[-116.54629950646468,34.118282713703366],[-116.56295061119748,34.11826208499153],[-116.56374348403018,34.11826261078648],[-116.58070513276344,34.118222824384695],[-116.58118163242779,34.11821767798719],[-116.59839404766922,34.118027475245285],[-116.59861915739461,34.11797190293171],[-116.60446854185874,34.116408107122204],[-116.6128567440805,34.11664686756031],[-116.6129706657299,34.1195896317721],[-116.61298139790262,34.12502134654713],[-116.61291357959023,34.13283361709353],[-116.6129212835421,34.13424037166718],[-116.61283700090719,34.14743006826862],[-116.61281781558769,34.14887066981398],[-116.6127600413385,34.16202656218177],[-116.61277384215619,34.16344923756825],[-116.61277565495644,34.16455808163307],[-116.61319680761952,34.16492653405101],[-116.61352758707007,34.16515367663404],[-116.6140897491816,34.165308489601784],[-116.6145060293826,34.16529830734392],[-116.61549974395322,34.164976906668656],[-116.61598286599788,34.165005627297745],[-116.61670908114156,34.16535273435582],[-116.6173770899464,34.16554675140894],[-116.61781243509265,34.16571666564291],[-116.61811736641918,34.16597741345845],[-116.61838055483115,34.16634149219419],[-116.61885586871935,34.16669466852584],[-116.61943724130322,34.16686073550822],[-116.6202047511022,34.16713153324235],[-116.62066764129001,34.16722107774305],[-116.62111102905301,34.16718799934338],[-116.62153410860236,34.16709061629282],[-116.62211761827832,34.16702504507464],[-116.62252100855326,34.1669042450973],[-116.62281799787442,34.16693925759765]],[[-115.99876709173968,33.3707499699139],[-115.99896715373997,33.370872763277504],[-115.99950131356748,33.371305109259765],[-116.00005897781439,33.37188473906895],[-116.00056642713524,33.37260819062127],[-116.00064730066363,33.372861903246694],[-115.99862983365583,33.37069337188184],[-115.99876709173968,33.3707499699139]]],[[[-116.83124295952904,34.10179603747084],[-116.83184446335845,34.10188970070068],[-116.83265058005338,34.10196003471263],[-116.83295987809055,34.10192723871141],[-116.83271291684588,34.10190569182834],[-116.83177625966881,34.101759850222265],[-116.83124295952904,34.10179603747084]]]]},"properties":{"Name":"(5) Coachella Valley"}}]}